[{"OBJECT_NAME":"STARLINK-31522","OBJECT_ID":"2024-046D","EPOCH":"2026-03-09T22:27:49.230144","MEAN_MOTION":15.30193631,"ECCENTRICITY":0.0001022,"INCLINATION":53.1609,"RA_OF_ASC_NODE":154.4541,"ARG_OF_PERICENTER":67.2061,"MEAN_ANOMALY":292.9048,"EPHEMERIS_TYPE":0,"CLASSIFICATION_TYPE":"U","NORAD_CAT_ID":59204,"ELEMENT_SET_NO":999,"REV_AT_EPOCH":11308,"BSTAR":6.643743e-6,"MEAN_MOTION_DOT":-1.62e-6,"MEAN_MOTION_DDOT":0},{"OBJECT_NAME":"COSMOS 249 DEB","OBJECT_ID":"1968-091AB","EPOCH":"2026-03-09T20:26:03.278112","MEAN_MOTION":13.65672942,"ECCENTRICITY":0.07422962,"INCLINATION":62.2701,"RA_OF_ASC_NODE":70.4053,"ARG_OF_PERICENTER":111.2229,"MEAN_ANOMALY":256.9701,"EPHEMERIS_TYPE":0,"CLASSIFICATION_TYPE":"U","NORAD_CAT_ID":3609,"ELEMENT_SET_NO":999,"REV_AT_EPOCH":69132,"BSTAR":0.00039134287,"MEAN_MOTION_DOT":2.2e-5,"MEAN_MOTION_DDOT":0}]
